OBJECT_NAME,OBJECT_ID,EPOCH,MEAN_MOTION,ECCENTRICITY,INCLINATION,RA_OF_ASC_NODE,ARG_OF_PERICENTER,MEAN_ANOMALY,EPHEMERIS_TYPE,CLASSIFICATION_TYPE,NORAD_CAT_ID,ELEMENT_SET_NO,REV_AT_EPOCH,BSTAR,MEAN_MOTION_DOT,MEAN_MOTION_DDOT
STARLINK-32237,2024-144U,2026-06-10T05:23:58.489728,15.34385448,.00015093,53.1592,146.1166,81.2112,278.9061,0,U,60443,999,10349,-.20431373E-4,-.1066E-4,0
STARLINK-32249,2024-144V,2026-06-10T03:28:57.992160,15.34402387,.0001562,53.1608,146.3272,93.0659,267.0522,0,U,60444,999,10352,.741576E-5,-.126E-5,0
STARLINK-32228,2024-144W,2026-06-10T05:51:06.870528,15.34355827,.00012984,53.1606,145.5240,105.8102,254.3044,0,U,60445,999,10354,.40160121E-3,.13198E-3,0
STARLINK-32247,2024-144X,2026-06-10T04:09:24.046272,15.30186956,.00013942,53.1608,137.1271,93.9310,266.1850,0,U,60446,999,10365,-.26396439E-4,-.1141E-4,0
STARLINK-32101,2024-144Y,2026-06-10T05:57:11.093184,15.34375259,.00012134,53.1596,145.5488,118.3722,241.7403,0,U,60447,999,10350,.6811651E-4,.1924E-4,0
LEGION 3,2024-146A,2026-06-10T05:05:24.993312,15.15986784,.00070039,45.0015,67.9616,126.5549,233.5975,0,U,60452,999,10096,.22061128E-3,.4047E-4,0
LEGION 4,2024-146B,2026-06-10T06:44:40.973856,15.15982279,.00141072,45.0003,159.5030,272.4112,87.5151,0,U,60453,999,9982,.15350566E-3,.2737E-4,0
EOS-08,2024-147A,2026-06-10T06:20:29.501376,15.48462560,.00047768,37.3803,101.3673,241.5395,118.4889,0,U,60454,999,10200,.51535783E-3,.28133E-3,0
YAOGAN-43 01A,2024-148A,2026-06-10T06:40:11.343648,15.35532070,.00049572,35.0039,182.9525,167.1921,192.8924,0,U,60458,999,10138,.30385071E-3,.10755E-3,0
YAOGAN-43 01B,2024-148B,2026-06-10T07:36:23.001696,15.35690869,.00078016,34.9911,178.1281,157.0700,203.0368,0,U,60459,999,10137,.27222685E-3,.9685E-4,0
YAOGAN-43 01C,2024-148C,2026-06-10T06:29:19.332096,15.23067377,.00054965,34.9984,206.0157,150.9871,209.1150,0,U,60460,999,10108,.29617575E-3,.7121E-4,0
YAOGAN-43 01D,2024-148D,2026-06-10T06:38:18.462048,15.29760403,.00018303,35.0020,192.3916,145.8302,214.2533,0,U,60461,999,10122,.20161483E-3,.5927E-4,0
YAOGAN-43 01E,2024-148E,2026-06-10T06:23:46.756896,15.22982686,.00055647,34.9918,203.7139,170.5061,189.5760,0,U,60462,999,10110,.33623491E-3,.8071E-4,0
YAOGAN-43 01F,2024-148F,2026-06-10T06:38:12.140160,15.32334992,.00078062,34.9901,192.3401,164.2064,195.8898,0,U,60463,999,10122,.28459693E-3,.9099E-4,0
YAOGAN-43 01G,2024-148G,2026-06-10T06:52:35.683968,15.29727866,.000528,35.0003,192.6849,80.4776,279.6537,0,U,60464,999,10122,.19220109E-3,.5644E-4,0
YAOGAN-43 01H,2024-148H,2026-06-10T06:33:10.428768,15.27640793,.0006888,34.9893,200.9689,138.2987,221.8255,0,U,60465,999,10113,.27162106E-3,.7499E-4,0
YAOGAN-43 01J,2024-148J,2026-06-10T06:51:11.759328,15.36190565,.00085741,34.9907,177.9957,203.9144,156.1178,0,U,60466,999,10137,.31177044E-3,.11284E-3,0
TRANSPORTER-11 OBJECT A,2024-149A,2026-06-10T04:02:40.801920,15.32793391,.0002167,97.3729,241.1208,223.3496,136.7576,0,U,60468,999,10098,.26649136E-3,.8363E-4,0
WARATAH SEED-1,2024-149B,2026-06-10T04:55:07.732704,15.35770996,.00008965,97.3690,241.7739,199.0535,161.0675,0,U,60469,999,10104,.34929476E-3,.12079E-3,0
PHISAT 2,2024-149C,2026-06-10T02:51:44.911584,15.30948449,.00003792,97.3755,240.3752,182.8472,177.2767,0,U,60470,999,10091,.21942853E-3,.6485E-4,0
LEMUR-2-TOMATOKECHUP,2024-149D,2026-06-10T04:50:21.804864,15.35884698,.00007423,97.3797,243.2313,194.7677,165.3545,0,U,60471,999,10109,.27691409E-3,.9591E-4,0
CONNECTA IOT-1,2024-149E,2026-06-10T04:47:13.321536,15.23487012,.0000892,97.3758,237.6089,358.6977,1.4258,0,U,60472,999,10073,.15341206E-3,.3589E-4,0
LOPEN,2024-149F,2026-06-09T23:32:33.411264,15.39480393,.00001319,97.3776,244.2936,187.0312,173.0932,0,U,60473,999,10115,.37731312E-3,.14727E-3,0
ROCK,2024-149G,2026-06-10T03:53:59.272512,15.39482647,.0000454,97.3772,244.4925,221.5661,138.5551,0,U,60474,999,10118,.37129146E-3,.14491E-3,0
CONNECTA IOT-3,2024-149H,2026-06-09T22:59:45.820608,15.23496977,.00014051,97.3733,237.1271,309.7810,50.3303,0,U,60475,999,10070,.16582419E-3,.3886E-4,0
QUBE,2024-149J,2026-06-10T04:30:27.585792,15.46882316,.00013313,97.3773,247.4884,214.5294,145.5870,0,U,60476,999,10138,.43465816E-3,.21794E-3,0
WREN-1,2024-149L,2026-06-10T02:57:28.881216,15.41280596,.00029319,97.3766,245.1630,284.7804,75.3118,0,U,60478,999,10123,.47599194E-3,.19752E-3,0
TOMORROW-S1,2024-149M,2026-06-09T22:54:47.945376,15.32616902,.00010042,97.3747,241.4503,262.7957,97.3171,0,U,60479,999,10098,.23253626E-3,.7246E-4,0
FLOCK 4BE-18,2024-149N,2026-06-10T04:49:32.943072,15.41635789,.00023891,97.3729,244.8588,270.0697,90.0276,0,U,60480,999,10123,.39459106E-3,.16547E-3,0
FLOCK 4BE-7,2024-149P,2026-06-10T04:50:06.080928,15.40033649,.00015556,97.3756,244.2121,276.0489,84.0580,0,U,60481,999,10117,.50279359E-3,.20026E-3,0
