STARLINK-32237          
1 60443U 24144U   26161.22498252 -.00001066  00000+0 -20431-4 0  9990
2 60443  53.1592 146.1166 0001509  81.2112 278.9061 15.34385448103494
STARLINK-32249          
1 60444U 24144V   26161.14511565 -.00000126  00000+0  74158-5 0  9996
2 60444  53.1608 146.3272 0001562  93.0659 267.0522 15.34402387103526
STARLINK-32228          
1 60445U 24144W   26161.24382952  .00013198  00000+0  40160-3 0  9990
2 60445  53.1606 145.5240 0001298 105.8102 254.3044 15.34355827103548
STARLINK-32247          
1 60446U 24144X   26161.17319498 -.00001141  00000+0 -26396-4 0  9991
2 60446  53.1608 137.1271 0001394  93.9310 266.1850 15.30186956103656
STARLINK-32101          
1 60447U 24144Y   26161.24804506  .00001924  00000+0  68117-4 0  9993
2 60447  53.1596 145.5488 0001213 118.3722 241.7403 15.34375259103502
LEGION 3                
1 60452U 24146A   26161.21209483  .00004047  00000+0  22061-3 0  9997
2 60452  45.0015  67.9616 0007003 126.5549 233.5975 15.15986784100965
LEGION 4                
1 60453U 24146B   26161.28102979  .00002737  00000+0  15351-3 0  9995
2 60453  45.0003 159.5030 0014107 272.4112  87.5151 15.15982279 99821
EOS-08                  
1 60454U 24147A   26161.26423034  .00028133  00000+0  51536-3 0  9996
2 60454  37.3803 101.3673 0004776 241.5395 118.4889 15.48462560102002
YAOGAN-43 01A           
1 60458U 24148A   26161.27790907  .00010755  00000+0  30385-3 0  9998
2 60458  35.0039 182.9525 0004957 167.1921 192.8924 15.35532070101388
YAOGAN-43 01B           
1 60459U 24148B   26161.31693289  .00009685  00000+0  27223-3 0  9996
2 60459  34.9911 178.1281 0007801 157.0700 203.0368 15.35690869101373
YAOGAN-43 01C           
1 60460U 24148C   26161.27036264  .00007121  00000+0  29618-3 0  9990
2 60460  34.9984 206.0157 0005496 150.9871 209.1150 15.23067377101080
YAOGAN-43 01D           
1 60461U 24148D   26161.27660257  .00005927  00000+0  20161-3 0  9992
2 60461  35.0020 192.3916 0001830 145.8302 214.2533 15.29760403101228
YAOGAN-43 01E           
1 60462U 24148E   26161.26651339  .00008071  00000+0  33623-3 0  9993
2 60462  34.9918 203.7139 0005564 170.5061 189.5760 15.22982686101107
YAOGAN-43 01F           
1 60463U 24148F   26161.27652940  .00009099  00000+0  28460-3 0  9998
2 60463  34.9901 192.3401 0007806 164.2064 195.8898 15.32334992101226
YAOGAN-43 01G           
1 60464U 24148G   26161.28652412  .00005644  00000+0  19220-3 0  9990
2 60464  35.0003 192.6849 0005280  80.4776 279.6537 15.29727866101227
YAOGAN-43 01H           
1 60465U 24148H   26161.27303737  .00007499  00000+0  27162-3 0  9997
2 60465  34.9893 200.9689 0006888 138.2987 221.8255 15.27640793101136
YAOGAN-43 01J           
1 60466U 24148J   26161.28555277  .00011284  00000+0  31177-3 0  9995
2 60466  34.9907 177.9957 0008574 203.9144 156.1178 15.36190565101370
TRANSPORTER-11 OBJECT A 
1 60468U 24149A   26161.16852780  .00008363  00000+0  26649-3 0  9996
2 60468  97.3729 241.1208 0002167 223.3496 136.7576 15.32793391100982
WARATAH SEED-1          
1 60469U 24149B   26161.20495061  .00012079  00000+0  34929-3 0  9996
2 60469  97.3690 241.7739 0000896 199.0535 161.0675 15.35770996101043
PHISAT 2                
1 60470U 24149C   26161.11926981  .00006485  00000+0  21943-3 0  9994
2 60470  97.3755 240.3752 0000379 182.8472 177.2767 15.30948449100914
LEMUR-2-TOMATOKECHUP    
1 60471U 24149D   26161.20164126  .00009591  00000+0  27691-3 0  9997
2 60471  97.3797 243.2313 0000742 194.7677 165.3545 15.35884698101091
CONNECTA IOT-1          
1 60472U 24149E   26161.19945974  .00003589  00000+0  15341-3 0  9994
2 60472  97.3758 237.6089 0000892 358.6977   1.4258 15.23487012100733
LOPEN                   
1 60473U 24149F   26160.98094226  .00014727  00000+0  37731-3 0  9999
2 60473  97.3776 244.2936 0000131 187.0312 173.0932 15.39480393101156
ROCK                    
1 60474U 24149G   26161.16249158  .00014491  00000+0  37129-3 0  9996
2 60474  97.3772 244.4925 0000454 221.5661 138.5551 15.39482647101182
CONNECTA IOT-3          
1 60475U 24149H   26160.95816922  .00003886  00000+0  16582-3 0  9998
2 60475  97.3733 237.1271 0001405 309.7810  50.3303 15.23496977100702
QUBE                    
1 60476U 24149J   26161.18781928  .00021794  00000+0  43466-3 0  9991
2 60476  97.3773 247.4884 0001331 214.5294 145.5870 15.46882316101380
WREN-1                  
1 60478U 24149L   26161.12325094  .00019752  00000+0  47599-3 0  9997
2 60478  97.3766 245.1630 0002931 284.7804  75.3118 15.41280596101237
TOMORROW-S1             
1 60479U 24149M   26160.95472159  .00007246  00000+0  23254-3 0  9990
2 60479  97.3747 241.4503 0001004 262.7957  97.3171 15.32616902100988
FLOCK 4BE-18            
1 60480U 24149N   26161.20107573  .00016547  00000+0  39459-3 0  9994
2 60480  97.3729 244.8588 0002389 270.0697  90.0276 15.41635789101239
FLOCK 4BE-7             
1 60481U 24149P   26161.20145927  .00020026  00000+0  50279-3 0  9990
2 60481  97.3756 244.2121 0001555 276.0489  84.0580 15.40033649101176
